{"fetched_at":"2026-03-29T16:36:15Z","count":15609,"tles":[{"name":"STARLINK-11198 [DTC]","line1":"1 60114U 24118B   26087.81495183  .00000860  00000+0  11954-4 0  9997","line2":"2 60114  53.1576 127.2405 0001258  93.0808 267.0354 15.69722898100999","category":"Starlink"}]}